{
    "links": {
        "self": "http://www.neowsapp.com/rest/v1/neo/3719193?api_key=iIulBulltgU6a56xZRHN4H3l9WmuAYTsLGpBGhQ2"
    },
    "id": "3719193",
    "neo_reference_id": "3719193",
    "name": "(2015 JO1)",
    "designation": "2015 JO1",
    "nasa_jpl_url": "http://ssd.jpl.nasa.gov/sbdb.cgi?sstr=3719193",
    "absolute_magnitude_h": 23.2,
    "estimated_diameter": {
        "kilometers": {
            "estimated_diameter_min": 0.0608912622,
            "estimated_diameter_max": 0.1361570015
        },
        "meters": {
            "estimated_diameter_min": 60.8912622106,
            "estimated_diameter_max": 136.1570015386
        },
        "miles": {
            "estimated_diameter_min": 0.0378360645,
            "estimated_diameter_max": 0.0846040122
        },
        "feet": {
            "estimated_diameter_min": 199.7744887109,
            "estimated_diameter_max": 446.7093369279
        }
    },
    "is_potentially_hazardous_asteroid": false,
    "close_approach_data": [
        {
            "close_approach_date": "2015-05-19",
            "close_approach_date_full": "2015-May-19 21:26",
            "epoch_date_close_approach": 1432070760000,
            "relative_velocity": {
                "kilometers_per_second": "22.4492030503",
                "kilometers_per_hour": "80817.1309809673",
                "miles_per_hour": "50216.6223031461"
            },
            "miss_distance": {
                "astronomical": "0.0662079883",
                "lunar": "25.7549074487",
                "kilometers": "9904574.026664921",
                "miles": "6154416.9160650698"
            },
            "orbiting_body": "Earth"
        }
    ],
    "orbital_data": {
        "orbit_id": "6",
        "orbit_determination_date": "2017-04-06 08:33:48",
        "first_observation_date": "2015-05-13",
        "last_observation_date": "2015-05-22",
        "data_arc_in_days": 9,
        "observations_used": 43,
        "orbit_uncertainty": "8",
        "minimum_orbit_intersection": ".0659628",
        "jupiter_tisserand_invariant": "2.899",
        "epoch_osculation": "2457157.5",
        "eccentricity": ".6625987438408617",
        "semi_major_axis": "2.610110810601484",
        "inclination": "31.36580528089387",
        "ascending_node_longitude": "54.83999011971856",
        "orbital_period": "1540.234492917643",
        "perihelion_distance": ".8806546662114876",
        "perihelion_argument": "239.7002423114075",
        "aphelion_distance": "4.339566954991481",
        "perihelion_time": "2457203.347623615106",
        "mean_anomaly": "349.2840054048052",
        "mean_motion": ".2337306440385304",
        "equinox": "J2000",
        "orbit_class": {
            "orbit_class_type": "APO",
            "orbit_class_description": "Near-Earth asteroid orbits which cross the Earth’s orbit similar to that of 1862 Apollo",
            "orbit_class_range": "a (semi-major axis) > 1.0 AU; q (perihelion) < 1.017 AU"
        }
    },
    "is_sentry_object": false
}